ONEWEB-0474             
1 51654U 22012AJ  23330.77507678  .00000658  00000+0  18474-2 0  9990
2 51654  87.8997 221.6503 0001282  65.1064 295.0196 13.10373282 87057
ONEWEB-0475             
1 51655U 22012AK  23330.66196341  .00000037  00000+0  62279-4 0  9995
2 51655  87.9228 191.4538 0001263  63.5002 296.6259 13.17650405 90751
ONEWEB-0490             
1 54113U 22138A   23330.90567781  .00000002  00000+0 -26136-4 0  9998
2 54113  87.9176 130.7404 0001404  97.6899 262.4393 13.19725836 53732
ONEWEB-0492             
1 54114U 22138B   23330.93093476  .00000027  00000+0  35545-4 0  9997
2 54114  87.9176 130.7290 0001203  98.8151 261.3118 13.19724813 53745
ONEWEB-0495             
1 54115U 22138C   23330.90884212 -.00000003  00000+0 -39113-4 0  9992
2 54115  87.9174 130.7459 0001083  92.4011 267.7245 13.19726738 53729
ONEWEB-0497             
1 54116U 22138D   23330.92145832 -.00000011  00000+0 -59252-4 0  9998
2 54116  87.9178 130.7368 0001365  94.4409 265.6880 13.19727576 53711
ONEWEB-0499             
1 54117U 22138E   23330.90409312  .00000056  00000+0  10791-3 0  9994
2 54117  87.9170 130.7363 0001625  69.0418 291.0888 13.19720577 53722
ONEWEB-0500             
1 54118U 22138F   23330.90724890 -.00000268  00000+0 -70099-3 0  9990
2 54118  87.9175 130.7353 0001649  99.0486 261.0833 13.19721307 53731
